STARLINK-35782          
1 67182U 25303V   26068.06437699  .00024154  00000+0  88480-3 0  9999
2 67182  43.0030 313.8882 0001793 254.3565 105.7089 15.27563799 12646
2025-313BD              
1 67299U 25313BD  26068.62968741  .00081010  00000+0  27634-2 0  9995
2 67299  97.3970 145.2850 0007287 333.4514  26.6352 15.30002360 10838
